{
    "links": {
        "self": "http://www.neowsapp.com/rest/v1/neo/3599870?api_key=iIulBulltgU6a56xZRHN4H3l9WmuAYTsLGpBGhQ2"
    },
    "id": "3599870",
    "neo_reference_id": "3599870",
    "name": "(2012 DP32)",
    "designation": "2012 DP32",
    "nasa_jpl_url": "http://ssd.jpl.nasa.gov/sbdb.cgi?sstr=3599870",
    "absolute_magnitude_h": 24.4,
    "estimated_diameter": {
        "kilometers": {
            "estimated_diameter_min": 0.0350392641,
            "estimated_diameter_max": 0.0783501764
        },
        "meters": {
            "estimated_diameter_min": 35.0392641108,
            "estimated_diameter_max": 78.3501764334
        },
        "miles": {
            "estimated_diameter_min": 0.0217723826,
            "estimated_diameter_max": 0.0486845275
        },
        "feet": {
            "estimated_diameter_min": 114.9582192654,
            "estimated_diameter_max": 257.0543928497
        }
    },
    "is_potentially_hazardous_asteroid": false,
    "close_approach_data": [
        {
            "close_approach_date": "2012-03-10",
            "close_approach_date_full": "2012-Mar-10 03:18",
            "epoch_date_close_approach": 1331349480000,
            "relative_velocity": {
                "kilometers_per_second": "8.8484196023",
                "kilometers_per_hour": "31854.310568133",
                "miles_per_hour": "19793.0298082935"
            },
            "miss_distance": {
                "astronomical": "0.0362202219",
                "lunar": "14.0896663191",
                "kilometers": "5418468.047167353",
                "miles": "3366879.9202133514"
            },
            "orbiting_body": "Earth"
        },
        {
            "close_approach_date": "2015-02-03",
            "close_approach_date_full": "2015-Feb-03 17:00",
            "epoch_date_close_approach": 1422982800000,
            "relative_velocity": {
                "kilometers_per_second": "22.1586595141",
                "kilometers_per_hour": "79771.1742507773",
                "miles_per_hour": "49566.705467101"
            },
            "miss_distance": {
                "astronomical": "0.44964362",
                "lunar": "174.91136818",
                "kilometers": "67265727.8110894",
                "miles": "41796985.10985772"
            },
            "orbiting_body": "Earth"
        }
    ],
    "orbital_data": {
        "orbit_id": "8",
        "orbit_determination_date": "2017-04-06 08:50:48",
        "first_observation_date": "2012-02-25",
        "last_observation_date": "2012-03-03",
        "data_arc_in_days": 7,
        "observations_used": 51,
        "orbit_uncertainty": "8",
        "minimum_orbit_intersection": ".0340566",
        "jupiter_tisserand_invariant": "3.605",
        "epoch_osculation": "2455984.5",
        "eccentricity": ".5242641808362126",
        "semi_major_axis": "2.050556065738715",
        "inclination": "3.272373732532737",
        "ascending_node_longitude": "317.878690625239",
        "orbital_period": "1072.521233737473",
        "perihelion_distance": ".9755229696754805",
        "perihelion_argument": "238.2075246651643",
        "aphelion_distance": "3.125589161801949",
        "perihelion_time": "2456017.482685768448",
        "mean_anomaly": "348.9291078785787",
        "mean_motion": ".3356576901936835",
        "equinox": "J2000",
        "orbit_class": {
            "orbit_class_type": "APO",
            "orbit_class_description": "Near-Earth asteroid orbits which cross the Earth’s orbit similar to that of 1862 Apollo",
            "orbit_class_range": "a (semi-major axis) > 1.0 AU; q (perihelion) < 1.017 AU"
        }
    },
    "is_sentry_object": false
}